1 45564U 20025AK  22365.15269783  .00020357  00000-0  13804-2 0  9997
2 45564  53.0516 274.4355 0001414  77.4865 282.6282 15.06432174149246
1 45564U 20025AK  22365.48442563  .00009687  00000-0  66782-3 0  9999
2 45564  53.0517 272.9441 0001291  87.1399 272.9738 15.06428503149899
1 45564U 20025AK  22365.48442563  .00009687  00000-0  66782-3 0  9999
2 45564  53.0517 272.9441 0001291  87.1399 272.9738 15.06428503149293
1 45564U 20025AK  22365.55077191  .00009605  00000-0  66233-3 0  9999
2 45564  53.0506 272.6473 0001472  75.9777 284.1375 15.06428607149904
1 45564U 20025AK  23001.01519667 -.00002263  00000-0 -13302-3 0  9991
2 45564  53.0517 270.5635 0001370  75.1358 284.9782 15.06412919149377
1 45564U 20025AK  23001.54597988  .00000727  00000-0  67718-4 0  9993
2 45564  53.0521 268.1807 0001238  78.1522 281.9606 15.06389248150052
1 45564U 20025AK  23001.81137507 -.00003438  00000-0 -21216-3 0  9996
2 45564  53.0518 266.9892 0001455  75.0168 285.0981 15.06371973150092
1 45564U 20025AK  23002.01041741 -.00001518  00000-0 -83113-4 0  9995
2 45564  53.0517 266.0952 0001398  78.0446 282.0700 15.06379942149523
1 45564U 20025AK  23002.14311329  .00000360  00000-0  43053-4 0  9992
2 45564  53.0515 265.4992 0001407  76.5216 283.5930 15.06378908150149
1 45564U 20025AK  23002.87293175  .00005790  00000-0  40732-3 0  9992
2 45564  53.0519 262.2236 0001392  76.9012 283.2132 15.06392835150258
1 45564U 20025AK  23003.00562538  .00006864  00000-0  47929-3 0  9998
2 45564  53.0520 261.6280 0001371  76.5275 283.5867 15.06396040149670
1 45564U 20025AK  23003.53639679  .00009515  00000-0  65663-3 0  9998
2 45564  53.0518 259.2454 0001386  78.8698 281.2446 15.06411030150355
1 45564U 20025AK  23004.06717084  .00002795  00000-0  20646-3 0  9999
2 45564  53.0512 256.8618 0001348  93.4995 266.6148 15.06403130149834
1 45564U 20025AK  23004.39890951  .00001584  00000-0  12519-3 0  9995
2 45564  53.0515 255.3735 0001303  85.6575 274.4563 15.06397993149881
1 45564U 20025AK  23004.92968255  .00012438  00000-0  85221-3 0  9997
2 45564  53.0512 252.9905 0001349  85.2234 274.8909 15.06409801149967
1 45564U 20025AK  23005.39410418  .00013832  00000-0  94508-3 0  9999
2 45564  53.0510 250.9050 0001403  85.5390 274.5759 15.06423181150634
1 45564U 20025AK  23005.79217949  .00009895  00000-0  68178-3 0  9995
2 45564  53.0508 249.1183 0001340  91.3494 268.7648 15.06424546150692
1 45564U 20025AK  23006.38930160  .00001105  00000-0  93063-4 0  9996
2 45564  53.0530 246.4378 0000864  79.6038 280.5049 15.06404076150183
1 45564U 20025AK  23006.78738905  .00003398  00000-0  24696-3 0  9994
2 45564  53.0508 244.6498 0001436  87.0149 273.1005 15.06392979150844
1 45564U 20025AK  23006.78738905  .00003398  00000-0  24696-3 0  9994
2 45564  53.0508 244.6498 0001436  87.0149 273.1005 15.06392979150248
1 45564U 20025AK  23007.05277787  .00006640  00000-0  46430-3 0  9994
2 45564  53.0509 243.4579 0001401  89.1451 270.9699 15.06393871150883
1 45564U 20025AK  23007.91528979  .00004750  00000-0  33757-3 0  9999
2 45564  53.0490 239.5880 0001705  83.1427 276.9755 15.06397571151013
1 45564U 20025AK  23007.91528979  .00004750  00000-0  33757-3 0  9999
2 45564  53.0490 239.5880 0001705  83.1427 276.9755 15.06397571150416
1 45564U 20025AK  23008.77779831  .00003195  00000-0  23327-3 0  9993
2 45564  53.0502 235.7157 0001211  79.3645 280.7481 15.06399337151148
1 45564U 20025AK  23009.04318580  .00002547  00000-0  18984-3 0  9997
2 45564  53.0506 234.5250 0001232  71.1742 288.9380 15.06400213150585
1 45564U 20025AK  23009.30857347  .00001909  00000-0  14702-3 0  9990
2 45564  53.0507 233.3327 0001209  79.6570 280.4556 15.06399064151229
1 45564U 20025AK  23009.90569357  .00003191  00000-0  23297-3 0  9991
2 45564  53.0510 230.6509 0001246  82.5290 277.5841 15.06402751151310
1 45564U 20025AK  23010.43647292  .00000916  00000-0  80362-4 0  9995
2 45564  53.0514 228.2679 0001307  82.8988 277.2150 15.06392592151399
1 45564U 20025AK  23010.43647292  .00000916  00000-0  80362-4 0  9995
2 45564  53.0514 228.2679 0001307  82.8988 277.2150 15.06392592150792
1 45564U 20025AK  23010.70185733  .00002056  00000-0  15687-3 0  9996
2 45564  53.0511 227.0764 0001382  84.7892 275.3255 15.06398608151430
1 45564U 20025AK  23011.03358899  .00003203  00000-0  23381-3 0  9993
2 45564  53.0511 225.5871 0001389  84.6871 275.4277 15.06404793150881
1 45564U 20025AK  23011.29897214 -.00000469  00000-0 -12619-4 0  9996
2 45564  53.0513 224.3955 0000861 242.5067 117.5835 15.06396278150928
1 45564U 20025AK  23011.56437357 -.00000520  00000-0 -15984-4 0  9990
2 45564  53.0475 223.2020 0002385  86.8783 273.2479 15.06393913151561
1 45564U 20025AK  23011.69707218 -.00002537  00000-0 -15156-3 0  9990
2 45564  53.0496 222.6075 0001695  88.7778 271.3405 15.06382429151585
1 45564U 20025AK  23011.69707218 -.00002537  00000-0 -15156-3 0  9990
2 45564  53.0496 222.6075 0001695  88.7778 271.3405 15.06382429150988
1 45564U 20025AK  23012.82497345  .00000917  00000-0  80473-4 0  9996
2 45564  53.0505 217.5448 0001555  93.2489 266.8678 15.06390410151757
1 45564U 20025AK  23012.82497345  .00000917  00000-0  80473-4 0  9996
2 45564  53.0505 217.5448 0001555  93.2489 266.8678 15.06390410151151
1 45564U 20025AK  23013.55479063  .00004510  00000-0  32150-3 0  9995
2 45564  53.0506 214.2678 0001541  96.9383 263.1781 15.06396547151869
1 45564U 20025AK  23013.82017695  .00005340  00000-0  37710-3 0  9993
2 45564  53.0504 213.0765 0001615  96.2689 263.8484 15.06400658151906
1 45564U 20025AK  23013.95287039  .00006286  00000-0  44049-3 0  9991
2 45564  53.0501 212.4807 0001611  96.2824 263.8348 15.06404650151321
1 45564U 20025AK  23014.88172515  .00002579  00000-0  19196-3 0  9992
2 45564  53.0506 208.3111 0001481  91.3684 268.7475 15.06402826151466
1 45564U 20025AK  23015.54519419  .00000092  00000-0  25089-4 0  9991
2 45564  53.0519 205.3322 0001653  99.6644 260.4532 15.06399266152163
1 45564U 20025AK  23015.81058405 -.00001140  00000-0 -57647-4 0  9996
2 45564  53.0506 204.1409 0001522  91.5959 268.5204 15.06394543151603
1 45564U 20025AK  23015.87693098  .00000256  00000-0  36114-4 0  9996
2 45564  53.0508 203.8425 0001636  93.5293 266.5883 15.06395672152211
1 45564U 20025AK  23016.54039907  .00000724  00000-0  67531-4 0  9991
2 45564  53.0516 200.8640 0001512  91.5977 268.5185 15.06398369152310
1 45564U 20025AK  23016.87212946  .00001241  00000-0  10221-3 0  9991
2 45564  53.0519 199.3750 0001501  91.7382 268.3779 15.06402877151762
1 45564U 20025AK  23017.53560388  .00001299  00000-0  10607-3 0  9992
2 45564  53.0521 196.3964 0001485  94.2523 265.8635 15.06393883151865
1 45564U 20025AK  23017.86733513  .00001689  00000-0  13224-3 0  9991
2 45564  53.0521 194.9071 0001493  93.4982 266.6178 15.06397960152511
1 45564U 20025AK  23018.53080250  .00001201  00000-0  99489-4 0  9997
2 45564  53.0522 191.9286 0001482  93.2163 266.8996 15.06401360152615
1 45564U 20025AK  23018.79618621  .00001291  00000-0  10550-3 0  9994
2 45564  53.0517 190.7369 0001429  92.1549 267.9604 15.06405682152658
1 45564U 20025AK  23018.79618621  .00001291  00000-0  10550-3 0  9994
2 45564  53.0517 190.7369 0001429  92.1549 267.9604 15.06405682152052
1 45564U 20025AK  23019.45966272  .00000547  00000-0  55639-4 0  9997
2 45564  53.0524 187.7586 0001582  93.3679 266.7491 15.06395307152754
1 45564U 20025AK  23019.45966272  .00000547  00000-0  55639-4 0  9997
2 45564  53.0524 187.7586 0001582  93.3679 266.7491 15.06395307152158
1 45564U 20025AK  23019.79139438  .00000359  00000-0  43000-4 0  9990
2 45564  53.0518 186.2689 0001453  93.9006 266.2149 15.06398984152807
1 45564U 20025AK  23020.65389689  .00001753  00000-0  13653-3 0  9991
2 45564  53.0528 182.3974 0001360  90.2471 269.8674 15.06403801152330
1 45564U 20025AK  23021.45006835  .00000903  00000-0  79543-4 0  9996
2 45564  53.0526 178.8231 0001329  92.6471 267.4670 15.06392122152451
1 45564U 20025AK  23021.71545226  .00001652  00000-0  12975-3 0  9994
2 45564  53.0526 177.6322 0001319  89.2647 270.8493 15.06397781152496
1 45564U 20025AK  23022.77699667  .00000703  00000-0  66060-4 0  9991
2 45564  53.0541 172.8644 0001319  87.9213 272.1927 15.06406973152650
1 45564U 20025AK  23023.77220312  .00000459  00000-0  49714-4 0  9994
2 45564  53.0527 168.3992 0000764 102.7252 257.3822 15.06397576152806
1 45564U 20025AK  23024.36933413  .00000163  00000-0  29865-4 0  9990
2 45564  53.0517 165.7155 0001339  85.8910 274.2232 15.06394988152894
1 45564U 20025AK  23024.70106231  .00001034  00000-0  88257-4 0  9996
2 45564  53.0528 164.2291 0001144  95.4688 264.6432 15.06402111152943
1 45564U 20025AK  23025.56356866 -.00000258  00000-0  15445-5 0  9990
2 45564  53.0524 160.3578 0000786  99.6487 260.4591 15.06409372153675
1 45564U 20025AK  23025.62991233  .00000146  00000-0  28633-4 0  9997
2 45564  53.0529 160.0590 0000566 136.4780 223.6253 15.06410317153681
1 45564U 20025AK  23026.09434421 -.00000340  00000-0 -39247-5 0  9992
2 45564  53.0526 157.9732 0000590 133.2201 226.8837 15.06402149153150
1 45564U 20025AK  23026.55877654  .00001720  00000-0  13435-3 0  9992
2 45564  53.0528 155.8884 0001152  93.3881 266.7240 15.06396901153825
1 45564U 20025AK  23027.55397924  .00000863  00000-0  76810-4 0  9994
2 45564  53.0532 151.4211 0001166  92.4482 267.6640 15.06398977153377
1 45564U 20025AK  23027.62032455  .00000591  00000-0  58579-4 0  9997
2 45564  53.0531 151.1229 0001263  96.3598 263.7535 15.06401978153984
1 45564U 20025AK  23028.54918438  .00001166  00000-0  97163-4 0  9994
2 45564  53.0534 146.9543 0001288  82.0417 278.0718 15.06396171154124
1 45564U 20025AK  23028.74821787 -.00000589  00000-0 -20639-4 0  9990
2 45564  53.0532 146.0585 0001308 106.2435 253.8697 15.06409194154151
1 45564U 20025AK  23028.74821787 -.00000589  00000-0 -20639-4 0  9990
2 45564  53.0532 146.0585 0001308 106.2435 253.8697 15.06409194153554
1 45564U 20025AK  23029.47804500  .00000022  00000-0  20388-4 0  9996
2 45564  53.0527 142.7821 0001169  96.9079 263.2043 15.06393220153662
1 45564U 20025AK  23029.54439039 -.00000068  00000-0  14351-4 0  9999
2 45564  53.0538 142.4819 0001263 109.6438 250.4687 15.06394727154277
1 45564U 20025AK  23030.47324774  .00000515  00000-0  53493-4 0  9998
2 45564  53.0533 138.3165 0001164  96.6319 263.4803 15.06396643154412
1 45564U 20025AK  23031.00401784  .00000547  00000-0  55622-4 0  9996
2 45564  53.0530 135.9335 0001135  88.8855 271.2264 15.06403304153899
1 45564U 20025AK  23031.46845440  .00007025  00000-0  49035-3 0  9995
2 45564  53.0534 133.8493 0001050  96.3774 263.7334 15.06374968153960
1 45564U 20025AK  23031.53479365  .00001915  00000-0  14741-3 0  9990
2 45564  53.0540 133.5513 0001189  87.8056 272.3069 15.06400861154579
1 45564U 20025AK  23031.66748342  .00002348  00000-0  17646-3 0  9996
2 45564  53.0534 132.9546 0001302  91.8491 268.2647 15.06405511154591
1 45564U 20025AK  23031.66748342  .00002348  00000-0  17646-3 0  9996
2 45564  53.0534 132.9546 0001302  91.8491 268.2647 15.06405511153994
1 45564U 20025AK  23031.99922962  .00000530  00000-0  54497-4 0  9991
2 45564  53.0538 131.4665 0001616  79.3023 280.8147 15.06393459154043
